{"fetched_at":"2026-03-29T16:36:15Z","count":15609,"tles":[{"name":"STARLINK-3887","line1":"1 52484U 22049AK  26087.90038323  .00000517  00000+0  50580-4 0  9995","line2":"2 52484  53.2181 332.8814 0001523  91.0583 269.0583 15.08841943215151","category":"Starlink"}]}