{
  "norad_id": 52484,
  "name": "STARLINK-3887",
  "history": [
    {
      "epoch": "2026-03-28T21:36:33.111072",
      "apogee_km": 540.7910422755203,
      "perigee_km": 538.6838577180506,
      "latitude_deg": -2.708496501588451,
      "longitude_deg": -125.16320992005058,
      "semi_major_axis_km": 6917.874449996785,
      "eccentricity": 0.0001523,
      "inclination_deg": 53.2181,
      "raan_deg": 332.8814,
      "arg_perigee_deg": 91.0583,
      "mean_anomaly_deg": 269.0583,
      "mean_motion_rev_day": 15.08841943
    }
  ]
}